      2.10          N: GNSS NAV DATA                        RINEX VERSION / TYPE
fic2rin                                 11/26/2023 00:17:27 PGM / RUN BY / DATE
                                                            END OF HEADER
22 23 11 25 20  0  0.0  .773030333221D-04 -.693489710102D-11  .000000000000D+00
     .102000000000D+03  .122687500000D+03  .450090176634D-08 -.376320261124D+00
     .639632344246D-05  .149630764499D-01  .870227813721D-05  .515373191643D+04
     .590400000000D+06 -.180676579475D-06 -.288664211964D+01 -.745058059692D-07
     .963187245643D+00  .217781250000D+03 -.116216491736D+01 -.827284459718D-08
     .197508227010D-09  .100000000000D+01  .228900000000D+04  .000000000000D+00
     .340000000000D+01  .000000000000D+00 -.111758708954D-07  .102000000000D+03
     .583200000000D+06  .400000000000D+01
26 23 11 25 20  0  0.0  .214067287743D-03 -.272848410532D-11  .000000000000D+00
     .510000000000D+02  .124375000000D+03  .497949313016D-08  .834805500497D+00
     .673159956932D-05  .857960409485D-02  .106897205114D-04  .515379973412D+04
     .590400000000D+06 -.558793544769D-08 -.305142106471D+01  .931322574615D-07
     .932916445269D+00  .155625000000D+03  .499370832891D+00 -.831570352529D-08
    -.100004165575D-09  .100000000000D+01  .228900000000D+04  .000000000000D+00
     .240000000000D+01  .000000000000D+00  .698491930962D-08  .510000000000D+02
     .583200000000D+06  .400000000000D+01
25 23 11 25 20  0  0.0  .478939153254D-03  .159161572810D-11  .000000000000D+00
     .510000000000D+02  .141562500000D+03  .454483216765D-08  .163769808678D+01
     .721402466297D-05  .114862975897D-01  .109225511551D-04  .515365886497D+04
     .590400000000D+06 -.288709998131D-06 -.299239701618D+01 -.147148966789D-06
     .952148405214D+00  .163593750000D+03  .105782320992D+01 -.808140805165D-08
     .105718689322D-09  .100000000000D+01  .228900000000D+04  .000000000000D+00
     .240000000000D+01  .000000000000D+00  .558793544769D-08  .510000000000D+02
     .583200000000D+06  .400000000000D+01
23 23 11 25 20  0  0.0  .105076935142D-03  .659383658785D-11  .000000000000D+00
     .400000000000D+01 -.387500000000D+02  .379122934849D-08  .225850234815D+01
    -.190734863281D-05  .388007471338D-02  .122226774693D-04  .515370076561D+04
     .590400000000D+06 -.633299350739D-07  .135642593784D+00  .856816768646D-07
     .976891449667D+00  .150000000000D+03 -.303354610465D+01 -.756031491746D-08
     .557880380814D-09  .100000000000D+01  .228900000000D+04  .000000000000D+00
     .240000000000D+01  .000000000000D+00 -.838190317154D-08  .516000000000D+03
     .583200000000D+06  .400000000000D+01
28 23 11 25 20  0  0.0 -.545452348888D-04 -.898126018001D-11  .000000000000D+00
     .180000000000D+02 -.240000000000D+02  .470555314803D-08  .109060436163D+01
    -.117160379887D-05  .791713129729D-03  .964850187302D-05  .515378803444D+04
     .590400000000D+06 -.335276126862D-07  .222516886587D+01 -.409781932831D-07
     .961226496542D+00  .194125000000D+03  .156644510665D+01 -.797604652007D-08
    -.613596987349D-09  .100000000000D+01  .228900000000D+04  .000000000000D+00
     .240000000000D+01  .000000000000D+00 -.931322574615D-08  .274000000000D+03
     .583200000000D+06  .400000000000D+01
14 23 11 25 20  0  0.0  .253451056778D-03  .106865627458D-10  .000000000000D+00
     .141000000000D+03  .127375000000D+03  .470733893670D-08  .176115948398D+01
     .667758285999D-05  .371456914581D-02  .940077006817D-05  .515368822479D+04
     .590400000000D+06  .745058059692D-08 -.294952191406D+01  .124797224998D-06
     .947660002849D+00  .191562500000D+03 -.295362911362D+01 -.816641159239D-08
     .467876631797D-10  .100000000000D+01  .228900000000D+04  .000000000000D+00
     .240000000000D+01  .000000000000D+00 -.791624188423D-08  .909000000000D+03
     .583200000000D+06  .400000000000D+01
15 23 11 25 20  0  0.0  .100717879832D-03  .375166564481D-11  .000000000000D+00
     .510000000000D+02  .231875000000D+02  .547022785695D-08 -.198882286678D+01
     .127963721752D-05  .154516588664D-01  .476092100143D-05  .515356296539D+04
     .590400000000D+06  .266358256340D-06  .106474143437D+01  .000000000000D+00
     .933486907248D+00  .264312500000D+03  .127538556909D+01 -.830534595100D-08
     .482520098899D-09  .100000000000D+01  .228900000000D+04  .000000000000D+00
     .240000000000D+01  .000000000000D+00 -.102445483208D-07  .510000000000D+02
     .583260000000D+06  .400000000000D+01
22 23 11 25 19 59 44.0  .773030333221D-04 -.693489710102D-11  .000000000000D+00
     .200000000000D+01  .122687500000D+03  .450090176634D-08 -.378653875860D+00
     .639632344246D-05  .149630778469D-01  .870227813721D-05  .515373190689D+04
     .590384000000D+06 -.180676579475D-06 -.288664199675D+01 -.745058059692D-07
     .963187255884D+00  .217781250000D+03 -.116216489395D+01 -.827284459718D-08
     .197508227010D-09  .100000000000D+01  .228900000000D+04  .000000000000D+00
     .240000000000D+01  .000000000000D+00 -.111758708954D-07  .200000000000D+01
     .587280000000D+06  .400000000000D+01
24 23 11 25 19 59 44.0 -.379590783268D-03 -.864019966684D-11  .000000000000D+00
     .110000000000D+02 -.264375000000D+02  .522128891621D-08 -.276696466392D+01
    -.161305069923D-05  .149102306459D-01  .921450555325D-05  .515362598991D+04
     .590384000000D+06  .240281224251D-06  .216654525605D+01 -.251457095146D-06
     .933679513579D+00  .184625000000D+03  .946779378830D+00 -.810283751571D-08
    -.535379443560D-09  .100000000000D+01  .228900000000D+04  .000000000000D+00
     .240000000000D+01  .000000000000D+00  .232830643654D-08  .110000000000D+02
     .587430000000D+06  .400000000000D+01
28 23 11 25 21 14 40.0 -.545843504369D-04 -.898126018001D-11  .000000000000D+00
     .190000000000D+02 -.223750000000D+02  .468555231492D-08  .174437735591D+01
    -.109523534775D-05  .791606842540D-03  .976584851742D-05  .515378746605D+04
     .594880000000D+06  .167638063431D-07  .222513319115D+01 -.651925802231D-07
     .961223939361D+00  .192187500000D+03  .156607556476D+01 -.793175896103D-08
    -.607882463602D-09  .100000000000D+01  .228900000000D+04  .000000000000D+00
     .240000000000D+01  .000000000000D+00 -.931322574615D-08  .275000000000D+03
     .587700000000D+06  .400000000000D+01
22 23 11 25 21 59 44.0  .772532075644D-04 -.693489710102D-11  .000000000000D+00
     .300000000000D+01  .114781250000D+03  .443518474325D-08  .671493974899D+00
     .596046447754D-05  .149646364152D-01  .907480716705D-05  .515373484993D+04
     .597584000000D+06 -.160187482834D-06 -.288670158433D+01 -.214204192162D-06
     .963188587139D+00  .209125000000D+03 -.116216903986D+01 -.823677166603D-08
     .182150444440D-09  .100000000000D+01  .228900000000D+04  .000000000000D+00
     .240000000000D+01  .000000000000D+00 -.111758708954D-07  .300000000000D+01
     .590400000000D+06  .400000000000D+01
